CCSDS_OMM_VERS = 2.0
CREATION_DATE  = 
ORIGINATOR     = 

OBJECT_NAME    = ATLAS CENTAUR 2
OBJECT_ID      = 1963-047A
CENTER_NAME    = EARTH
REF_FRAME      = TEME
TIME_SYSTEM    = UTC
MEAN_ELEMENT_THEORY = SGP/SGP4

EPOCH          = 2026-01-19T08:09:16.250688
MEAN_MOTION    = 14.11910868
ECCENTRICITY   = .05483594
INCLINATION    = 30.3541
RA_OF_ASC_NODE = 111.4028
ARG_OF_PERICENTER = 5.4217
MEAN_ANOMALY   = 355.2030

EPHEMERIS_TYPE = 0
CLASSIFICATION_TYPE = U
NORAD_CAT_ID   = 694
ELEMENT_SET_NO = 999
REV_AT_EPOCH   = 12464
BSTAR          = .16279389E-3
MEAN_MOTION_DOT = .142E-4
MEAN_MOTION_DDOT = 0

CCSDS_OMM_VERS = 2.0
CREATION_DATE  = 
ORIGINATOR     = 

OBJECT_NAME    = THOR AGENA D R/B
OBJECT_ID      = 1964-002A
CENTER_NAME    = EARTH
REF_FRAME      = TEME
TIME_SYSTEM    = UTC
MEAN_ELEMENT_THEORY = SGP/SGP4

EPOCH          = 2026-01-19T06:16:52.850784
MEAN_MOTION    = 14.33983774
ECCENTRICITY   = .00335889
INCLINATION    = 99.1222
RA_OF_ASC_NODE = 29.9108
ARG_OF_PERICENTER = 43.6446
MEAN_ANOMALY   = 316.7385

EPHEMERIS_TYPE = 0
CLASSIFICATION_TYPE = U
NORAD_CAT_ID   = 733
ELEMENT_SET_NO = 999
REV_AT_EPOCH   = 23121
BSTAR          = .82319914E-4
MEAN_MOTION_DOT = .182E-5
MEAN_MOTION_DDOT = 0

CCSDS_OMM_VERS = 2.0
CREATION_DATE  = 
ORIGINATOR     = 

OBJECT_NAME    = SL-3 R/B
OBJECT_ID      = 1964-053B
CENTER_NAME    = EARTH
REF_FRAME      = TEME
TIME_SYSTEM    = UTC
MEAN_ELEMENT_THEORY = SGP/SGP4

EPOCH          = 2026-01-19T06:45:25.610688
MEAN_MOTION    = 14.61309392
ECCENTRICITY   = .00769633
INCLINATION    = 65.0772
RA_OF_ASC_NODE = 116.0854
ARG_OF_PERICENTER = 308.0016
MEAN_ANOMALY   = 51.4151

EPHEMERIS_TYPE = 0
CLASSIFICATION_TYPE = U
NORAD_CAT_ID   = 877
ELEMENT_SET_NO = 999
REV_AT_EPOCH   = 25957
BSTAR          = .85891753E-4
MEAN_MOTION_DOT = .318E-5
MEAN_MOTION_DDOT = 0

CCSDS_OMM_VERS = 2.0
CREATION_DATE  = 
ORIGINATOR     = 

OBJECT_NAME    = SL-8 R/B
OBJECT_ID      = 1967-045B
CENTER_NAME    = EARTH
REF_FRAME      = TEME
TIME_SYSTEM    = UTC
MEAN_ELEMENT_THEORY = SGP/SGP4

EPOCH          = 2026-01-19T07:15:14.577120
MEAN_MOTION    = 14.45574583
ECCENTRICITY   = .00628315
INCLINATION    = 74.0106
RA_OF_ASC_NODE = 80.3228
ARG_OF_PERICENTER = 99.6720
MEAN_ANOMALY   = 261.1543

EPHEMERIS_TYPE = 0
CLASSIFICATION_TYPE = U
NORAD_CAT_ID   = 2802
ELEMENT_SET_NO = 999
REV_AT_EPOCH   = 8188
BSTAR          = .80670906E-4
MEAN_MOTION_DOT = .264E-5
MEAN_MOTION_DDOT = 0

CCSDS_OMM_VERS = 2.0
CREATION_DATE  = 
ORIGINATOR     = 

OBJECT_NAME    = SL-8 R/B
OBJECT_ID      = 1968-040B
CENTER_NAME    = EARTH
REF_FRAME      = TEME
TIME_SYSTEM    = UTC
MEAN_ELEMENT_THEORY = SGP/SGP4

EPOCH          = 2026-01-19T02:56:50.983584
MEAN_MOTION    = 15.02820195
ECCENTRICITY   = .00262678
INCLINATION    = 74.0308
RA_OF_ASC_NODE = 54.9439
ARG_OF_PERICENTER = 251.3634
MEAN_ANOMALY   = 108.4702

EPHEMERIS_TYPE = 0
CLASSIFICATION_TYPE = U
NORAD_CAT_ID   = 3230
ELEMENT_SET_NO = 999
REV_AT_EPOCH   = 8256
BSTAR          = .23139776E-3
MEAN_MOTION_DOT = .308E-4
MEAN_MOTION_DDOT = 0

CCSDS_OMM_VERS = 2.0
CREATION_DATE  = 
ORIGINATOR     = 

OBJECT_NAME    = OAO 2
OBJECT_ID      = 1968-110A
CENTER_NAME    = EARTH
REF_FRAME      = TEME
TIME_SYSTEM    = UTC
MEAN_ELEMENT_THEORY = SGP/SGP4

EPOCH          = 2026-01-19T02:40:30.359136
MEAN_MOTION    = 14.47269257
ECCENTRICITY   = .00052742
INCLINATION    = 34.9916
RA_OF_ASC_NODE = 182.0226
ARG_OF_PERICENTER = 167.0282
MEAN_ANOMALY   = 193.0545

EPHEMERIS_TYPE = 0
CLASSIFICATION_TYPE = U
NORAD_CAT_ID   = 3597
ELEMENT_SET_NO = 999
REV_AT_EPOCH   = 1191
BSTAR          = .55813915E-4
MEAN_MOTION_DOT = .188E-5
MEAN_MOTION_DDOT = 0

CCSDS_OMM_VERS = 2.0
CREATION_DATE  = 
ORIGINATOR     = 

OBJECT_NAME    = ISIS 1
OBJECT_ID      = 1969-009A
CENTER_NAME    = EARTH
REF_FRAME      = TEME
TIME_SYSTEM    = UTC
MEAN_ELEMENT_THEORY = SGP/SGP4

EPOCH          = 2026-01-19T07:50:37.921920
MEAN_MOTION    = 11.30380660
ECCENTRICITY   = .17077864
INCLINATION    = 88.4530
RA_OF_ASC_NODE = 160.6884
ARG_OF_PERICENTER = 188.7708
MEAN_ANOMALY   = 167.9519

EPHEMERIS_TYPE = 0
CLASSIFICATION_TYPE = U
NORAD_CAT_ID   = 3669
ELEMENT_SET_NO = 999
REV_AT_EPOCH   = 34295
BSTAR          = .25941779E-3
MEAN_MOTION_DOT = .373E-5
MEAN_MOTION_DDOT = 0

CCSDS_OMM_VERS = 2.0
CREATION_DATE  = 
ORIGINATOR     = 

OBJECT_NAME    = SERT 2
OBJECT_ID      = 1970-009A
CENTER_NAME    = EARTH
REF_FRAME      = TEME
TIME_SYSTEM    = UTC
MEAN_ELEMENT_THEORY = SGP/SGP4

EPOCH          = 2026-01-19T07:12:55.614816
MEAN_MOTION    = 13.58723265
ECCENTRICITY   = .00041846
INCLINATION    = 99.2700
RA_OF_ASC_NODE = 325.1136
ARG_OF_PERICENTER = 297.5385
MEAN_ANOMALY   = 184.1604

EPHEMERIS_TYPE = 0
CLASSIFICATION_TYPE = U
NORAD_CAT_ID   = 4327
ELEMENT_SET_NO = 999
REV_AT_EPOCH   = 77318
BSTAR          = .5224633E-4
MEAN_MOTION_DOT = -.3E-7
MEAN_MOTION_DDOT = 0

CCSDS_OMM_VERS = 2.0
CREATION_DATE  = 
ORIGINATOR     = 

OBJECT_NAME    = SL-3 R/B
OBJECT_ID      = 1971-028B
CENTER_NAME    = EARTH
REF_FRAME      = TEME
TIME_SYSTEM    = UTC
MEAN_ELEMENT_THEORY = SGP/SGP4

EPOCH          = 2026-01-19T07:14:57.977088
MEAN_MOTION    = 15.57085634
ECCENTRICITY   = .00183094
INCLINATION    = 81.2386
RA_OF_ASC_NODE = 112.8488
ARG_OF_PERICENTER = 106.6275
MEAN_ANOMALY   = 253.6988

EPHEMERIS_TYPE = 0
CLASSIFICATION_TYPE = U
NORAD_CAT_ID   = 5118
ELEMENT_SET_NO = 999
REV_AT_EPOCH   = 98097
BSTAR          = .44136523E-3
MEAN_MOTION_DOT = .32302E-3
MEAN_MOTION_DDOT = 0

CCSDS_OMM_VERS = 2.0
CREATION_DATE  = 
ORIGINATOR     = 

OBJECT_NAME    = ASTEX 1
OBJECT_ID      = 1971-089A
CENTER_NAME    = EARTH
REF_FRAME      = TEME
TIME_SYSTEM    = UTC
MEAN_ELEMENT_THEORY = SGP/SGP4

EPOCH          = 2026-01-19T07:09:18.576288
MEAN_MOTION    = 14.50695017
ECCENTRICITY   = .00135473
INCLINATION    = 92.7157
RA_OF_ASC_NODE = 135.7759
ARG_OF_PERICENTER = 248.2618
MEAN_ANOMALY   = 111.7146

EPHEMERIS_TYPE = 0
CLASSIFICATION_TYPE = U
NORAD_CAT_ID   = 5560
ELEMENT_SET_NO = 999
REV_AT_EPOCH   = 85514
BSTAR          = .15151226E-3
MEAN_MOTION_DOT = .594E-5
MEAN_MOTION_DDOT = 0

CCSDS_OMM_VERS = 2.0
CREATION_DATE  = 
ORIGINATOR     = 

OBJECT_NAME    = SL-8 R/B
OBJECT_ID      = 1971-119B
CENTER_NAME    = EARTH
REF_FRAME      = TEME
TIME_SYSTEM    = UTC
MEAN_ELEMENT_THEORY = SGP/SGP4

EPOCH          = 2026-01-19T03:53:12.491232
MEAN_MOTION    = 14.36539127
ECCENTRICITY   = .05560759
INCLINATION    = 73.8879
RA_OF_ASC_NODE = 268.2066
ARG_OF_PERICENTER = 244.9440
MEAN_ANOMALY   = 109.3022

EPHEMERIS_TYPE = 0
CLASSIFICATION_TYPE = U
NORAD_CAT_ID   = 5730
ELEMENT_SET_NO = 999
REV_AT_EPOCH   = 64837
BSTAR          = .36880137E-3
MEAN_MOTION_DOT = .7077E-4
MEAN_MOTION_DDOT = 0

CCSDS_OMM_VERS = 2.0
CREATION_DATE  = 
ORIGINATOR     = 

OBJECT_NAME    = OAO 3 (COPERNICUS)
OBJECT_ID      = 1972-065A
CENTER_NAME    = EARTH
REF_FRAME      = TEME
TIME_SYSTEM    = UTC
MEAN_ELEMENT_THEORY = SGP/SGP4

EPOCH          = 2026-01-18T23:13:57.361728
MEAN_MOTION    = 14.59943757
ECCENTRICITY   = .00059324
INCLINATION    = 35.0040
RA_OF_ASC_NODE = 220.5898
ARG_OF_PERICENTER = 116.4921
MEAN_ANOMALY   = 41.1857

EPHEMERIS_TYPE = 0
CLASSIFICATION_TYPE = U
NORAD_CAT_ID   = 6153
ELEMENT_SET_NO = 999
REV_AT_EPOCH   = 83892
BSTAR          = .61613963E-4
MEAN_MOTION_DOT = .279E-5
MEAN_MOTION_DDOT = 0

