ATLAS CENTAUR 2         
1 00694U 63047A   26019.33977142  .00001420  00000+0  16279-3 0  9997
2 00694  30.3541 111.4028 0548359   5.4217 355.2030 14.11910868124641
THOR AGENA D R/B        
1 00733U 64002A   26019.26172281  .00000182  00000+0  82320-4 0  9991
2 00733  99.1222  29.9108 0033588  43.6446 316.7385 14.33983774231214
SL-3 R/B                
1 00877U 64053B   26019.28154642  .00000318  00000+0  85892-4 0  9997
2 00877  65.0772 116.0854 0076963 308.0016  51.4151 14.61309392259578
SL-8 R/B                
1 02802U 67045B   26019.30225205  .00000264  00000+0  80671-4 0  9998
2 02802  74.0106  80.3228 0062831  99.6720 261.1543 14.45574583 81881
SL-8 R/B                
1 03230U 68040B   26019.12281231  .00003080  00000+0  23140-3 0  9997
2 03230  74.0308  54.9439 0026267 251.3634 108.4702 15.02820195 82569
OAO 2                   
1 03597U 68110A   26019.11146249  .00000188  00000+0  55814-4 0  9999
2 03597  34.9916 182.0226 0005274 167.0282 193.0545 14.47269257 11919
ISIS 1                  
1 03669U 69009A   26019.32682780  .00000373  00000+0  25942-3 0  9999
2 03669  88.4530 160.6884 1707786 188.7708 167.9519 11.30380660342951
SERT 2                  
1 04327U 70009A   26019.30064369 -.00000003  00000+0  52246-4 0  9997
2 04327  99.2700 325.1136 0004184 297.5385 184.1604 13.58723265773184
SL-3 R/B                
1 05118U 71028B   26019.30205992  .00032302  00000+0  44137-3 0  9992
2 05118  81.2386 112.8488 0018309 106.6275 253.6988 15.57085634980973
ASTEX 1                 
1 05560U 71089A   26019.29813167  .00000594  00000+0  15151-3 0  9999
2 05560  92.7157 135.7759 0013547 248.2618 111.7146 14.50695017855149
SL-8 R/B                
1 05730U 71119B   26019.16195013  .00007077  00000+0  36880-3 0  9996
2 05730  73.8879 268.2066 0556075 244.9440 109.3022 14.36539127648370
OAO 3 (COPERNICUS)      
1 06153U 72065A   26018.96802502  .00000279  00000+0  61614-4 0  9993
2 06153  35.0040 220.5898 0005932 116.4921  41.1857 14.59943757838926
